STARLINK-32094          
1 59696U 24086Q   26068.39579129 -.00001236  00000+0 -35419-4 0  9991
2 59696  43.0013  61.8558 0000827 278.2145  81.8613 15.27575061104064
LUR-1                   
1 60506U 24149AQ  26068.79566301  .00009121  00000+0  32985-3 0  9998
2 60506  97.3790 148.4255 0002777 309.1571  50.9421 15.28658648 86785
